IRIDIUM 150             
1 43257U 18030J   23224.80652326  .00000328  00000+0  11018-3 0  9994
2 43257  86.4004   4.8476 0002521  95.6986 264.4497 14.34216164281208
IRIDIUM 143             
1 43258U 18030K   23224.43864900 -.00000069  00000+0 -31831-4 0  9997
2 43258  86.4005   5.0526 0002187  88.1361 272.0085 14.34217822281098
IRIDIUM 161             
1 43478U 18047C   23225.10776082  .00000451  00000+0  12800-3 0  9994
2 43478  86.4553 162.7469 0002391  86.7706 273.3768 14.43283054275265
IRIDIUM 152             
1 43479U 18047D   23224.76020110  .00000233  00000+0  76105-4 0  9997
2 43479  86.4026 162.7524 0002360  79.1709 280.9753 14.34218601273518
IRIDIUM 147             
1 43480U 18047E   23225.11539746  .00000310  00000+0  10381-3 0  9998
2 43480  86.4027 162.5912 0002136  87.5145 272.6295 14.34217380273554
IRIDIUM 110             
1 43481U 18047F   23224.35428313  .00000335  00000+0  11257-3 0  9991
2 43481  86.4028 162.9735 0002401  92.1554 267.9917 14.34215648273434
IRIDIUM 162             
1 43482U 18047G   23225.10146245  .00000442  00000+0  12537-3 0  9998
2 43482  86.4551 162.6538 0002342  85.6308 274.5161 14.43280946275252
IRIDIUM 160             
1 43569U 18061A   23224.99780906  .00000283  00000+0  93834-4 0  9997
2 43569  86.3997 131.1155 0002018  77.7425 282.3997 14.34215061264426
